MEAN_MOTION;ECCENTRICITY;INCLINATION;RA_OF_ASC_NODE;ARG_OF_PERICENTER;MEAN_ANOMALY;BSTAR;MEAN_MOTION_DOT;MEAN_MOTION_DDOT;TYPE
14.34218247;0.0002524;86.394;116.0709;94.7466;265.4018;1.6539E-5;6.6E-7;0;Iridium
14.34218369;0.0002521;86.3939;115.6624;94.2808;265.8676;2.0007E-5;7.6E-7;0;Iridium
14.34218373;0.0002521;86.3938;115.6333;94.2874;265.8609;1.991E-5;7.6E-7;0;Iridium
14.34218479;0.0002523;86.3937;115.2539;94.0116;266.1368;2.2199E-5;8.2E-7;0;Iridium
14.34218503;0.0002527;86.3937;115.1956;94.0627;266.0857;2.2618E-5;8.3E-7;0;Iridium
14.34218587;0.000253;86.3936;114.8454;93.91;266.2385;2.2932E-5;8.4E-7;0;Iridium
14.34218726;0.0002537;86.3935;114.4368;93.2924;266.8562;2.4747E-5;8.9E-7;0;Iridium
14.34218917;0.0002546;86.3934;114.0282;92.9792;267.1695;2.6831E-5;9.5E-7;0;Iridium
14.34218963;0.000255;86.3934;113.8531;92.82;267.3288;2.6226E-5;9.3E-7;0;Iridium
14.34218989;0.0002549;86.3934;113.7948;92.8153;267.3335;2.5751E-5;9.2E-7;0;Iridium
14.34219035;0.0002545;86.3933;113.5613;92.505;267.6437;2.3723E-5;8.6E-7;0;Iridium
14.34219146;0.0002551;86.3932;113.3278;92.3277;267.8211;2.3725E-5;8.6E-7;0;Iridium
14.34219183;0.0002548;86.3932;113.1527;92.1094;268.0394;2.2716E-5;8.3E-7;0;Iridium
14.34219312;0.0002553;86.393;112.6856;91.7509;268.3979;1.9104E-5;7.3E-7;0;Iridium
14.3421949;0.0002538;86.3929;112.306;90.8249;269.3238;2.0231E-5;7.6E-7;0;Iridium
14.34219562;0.0002536;86.3929;112.2184;90.8265;269.3222;2.2356E-5;8.2E-7;0;Iridium
14.3421966;0.0002531;86.3928;111.9265;90.5431;269.6055;2.2194E-5;8.2E-7;0;Iridium
14.34219697;0.0002533;86.3928;111.7513;90.4028;269.7458;2.104E-5;7.9E-7;0;Iridium
14.34219771;0.0002529;86.3927;111.4886;90.1519;269.9966;2.0684E-5;7.8E-7;0;Iridium
14.34219774;0.0002532;86.3927;111.3426;89.9556;270.193;1.8867E-5;7.3E-7;0;Iridium
14.34219806;0.0002527;86.3926;111.0798;89.6719;270.4766;1.6396E-5;6.6E-7;0;Iridium
14.34219804;0.0002527;86.3926;111.0506;89.6268;270.5218;1.5734E-5;6.4E-7;0;Iridium
14.34219787;0.000253;86.3925;110.9047;89.5165;270.6321;1.3526E-5;5.8E-7;0;Iridium
14.34215923;0.0002514;86.3925;110.6419;89.2123;270.9361;1.4758E-5;6.1E-7;0;Iridium
14.3421594;0.0002518;86.3925;110.4959;88.9968;271.1516;1.5593E-5;6.3E-7;0;Iridium
14.34215959;0.0002512;86.3924;110.2332;88.6654;271.4829;1.6652E-5;6.6E-7;0;Iridium
14.34215979;0.0002512;86.3924;110.0872;88.4675;271.6808;1.5326E-5;6.3E-7;0;Iridium
14.34216039;0.0002507;86.3923;109.8245;88.2185;271.9298;1.6835E-5;6.7E-7;0;Iridium
14.34216201;0.0002502;86.3922;109.3865;87.8809;272.2674;2.2513E-5;8.3E-7;0;Iridium
14.34216243;0.0002502;86.3922;109.2406;87.7498;272.3985;2.3496E-5;8.6E-7;0;Iridium
14.34216322;0.0002496;86.3921;108.9778;87.455;272.6931;2.35E-5;8.6E-7;0;Iridium
14.34216368;0.0002497;86.3921;108.8318;87.2719;272.8762;2.4168E-5;8.7E-7;0;Iridium
14.34216436;0.0002491;86.3921;108.569;86.9736;273.1745;2.3199E-5;8.5E-7;0;Iridium
14.34216455;0.0002488;86.392;108.3939;86.77;273.3781;2.1082E-5;7.9E-7;0;Iridium
14.34216494;0.0002484;86.392;108.1895;86.619;273.529;1.9878E-5;7.5E-7;0;Iridium
14.34216543;0.000248;86.392;107.9851;86.3873;273.7607;1.8857E-5;7.3E-7;0;Iridium
14.3421658;0.0002475;86.392;107.7516;86.2484;273.8995;1.6347E-5;6.6E-7;0;Iridium
14.34216594;0.0002474;86.392;107.7224;86.2151;273.9328;1.6437E-5;6.6E-7;0;Iridium
14.34216644;0.0002473;86.392;107.5764;86.093;274.0548;1.734E-5;6.8E-7;0;Iridium
14.34216719;0.0002466;86.392;107.3136;85.8131;274.3346;1.6653E-5;6.6E-7;0;Iridium
14.3421679;0.0002464;86.392;107.1385;85.5692;274.5785;1.7926E-5;7.0E-7;0;Iridium
14.34216874;0.0002456;86.3921;106.8757;85.372;274.7757;1.7885E-5;7.0E-7;0;Iridium
14.34216896;0.0002456;86.392;106.7589;85.2542;274.8934;1.7925E-5;7.0E-7;0;Iridium
14.34216931;0.0002453;86.3921;106.6713;85.2019;274.9457;1.7269E-5;6.8E-7;0;Iridium
14.34216959;0.0002441;86.3921;106.2918;84.8966;275.2508;1.2909E-5;5.6E-7;0;Iridium
14.34216949;0.0002441;86.3921;106.2334;84.8492;275.2982;1.1393E-5;5.2E-7;0;Iridium
14.3421699;0.0002433;86.3921;106.0582;84.7007;275.4467;1.1807E-5;5.3E-7;0;Iridium
14.34217014;0.000243;86.3921;105.883;84.4969;275.6504;1.1095E-5;5.1E-7;0;Iridium
14.34217069;0.0002423;86.3921;105.6495;84.343;275.8042;1.2001E-5;5.3E-7;0;Iridium
14.34217104;0.0002419;86.3921;105.4743;84.1946;275.9525;1.2614E-5;5.5E-7;0;Iridium
14.34217137;0.0002409;86.3921;105.2407;84.0384;276.1086;1.2581E-5;5.5E-7;0;Iridium
14.34217272;0.0002393;86.3921;104.8028;83.7451;276.4017;1.6917E-5;6.7E-7;0;Iridium
14.34217319;0.000239;86.3921;104.6276;83.5906;276.5562;1.8107E-5;7.0E-7;0;Iridium
14.34217403;0.0002382;86.3921;104.394;83.4532;276.6935;2.0723E-5;7.8E-7;0;Iridium
14.34217463;0.0002378;86.3921;104.2189;83.3758;276.7708;2.2286E-5;8.2E-7;0;Iridium
14.34217507;0.0002367;86.3922;103.9854;83.321;276.8255;2.2122E-5;8.2E-7;0;Iridium
14.34217553;0.0002364;86.3922;103.8103;83.1895;276.957;2.2849E-5;8.4E-7;0;Iridium
14.34217597;0.0002352;86.3922;103.5475;83.2277;276.9186;2.1534E-5;8.0E-7;0;Iridium
14.34217597;0.0002352;86.3922;103.5475;83.2277;276.9186;2.1534E-5;8.0E-7;0;Iridium
14.34217645;0.0002347;86.3922;103.3724;83.1328;277.0135;2.1767E-5;8.1E-7;0;Iridium
14.3421772;0.0002335;86.3923;103.1388;82.9295;277.2167;2.2266E-5;8.2E-7;0;Iridium
14.34217764;0.0002331;86.3923;102.9636;82.7196;277.4264;2.1715E-5;8.1E-7;0;Iridium
14.34217808;0.0002324;86.3924;102.7301;82.9343;277.2117;2.0085E-5;7.6E-7;0;Iridium
14.34217859;0.0002319;86.3924;102.5549;82.7819;277.364;1.9815E-5;7.5E-7;0;Iridium
14.34217986;0.0002299;86.3925;102.117;82.4621;277.6836;1.7678E-5;6.9E-7;0;Iridium
14.34218111;0.0002286;86.3925;101.8835;82.3171;277.8284;1.9108E-5;7.3E-7;0;Iridium
14.34218266;0.0002266;86.3926;101.4455;81.9209;278.2243;1.8722E-5;7.2E-7;0;Iridium
14.34218301;0.0002264;86.3926;101.2996;81.9137;278.2316;1.7928E-5;7.0E-7;0;Iridium
14.3421835;0.000225;86.3927;101.0368;81.6651;278.48;1.6083E-5;6.5E-7;0;Iridium
14.34218393;0.0002246;86.3927;100.8617;81.8635;278.2816;1.5655E-5;6.4E-7;0;Iridium
14.34218403;0.0002234;86.3928;100.6282;81.9576;278.1874;1.3423E-5;5.7E-7;0;Iridium
14.34218441;0.0002229;86.3928;100.4531;81.8421;278.3027;1.3332E-5;5.7E-7;0;Iridium
14.34218512;0.0002221;86.3928;100.2195;81.9154;278.2294;1.4453E-5;6.0E-7;0;Iridium
14.34218565;0.0002218;86.3928;100.0443;81.9033;278.2414;1.5497E-5;6.3E-7;0;Iridium
14.34218624;0.0002208;86.3929;99.8108;81.8094;278.3352;1.6705E-5;6.7E-7;0;Iridium
14.34218624;0.0002208;86.3929;99.8108;81.8094;278.3352;1.6705E-5;6.7E-7;0;Iridium
14.34218708;0.0002203;86.3929;99.6065;81.7103;278.4342;1.8763E-5;7.2E-7;0;Iridium
14.34218784;0.0002193;86.393;99.4022;81.6636;278.4808;2.1473E-5;8.0E-7;0;Iridium
14.34218864;0.0002185;86.393;99.1687;81.6022;278.5422;2.2966E-5;8.4E-7;0;Iridium
14.34218945;0.0002175;86.3931;98.9643;81.6652;278.479;2.5064E-5;9.0E-7;0;Iridium
14.34219001;0.000217;86.3931;98.7892;81.6917;278.4525;2.5943E-5;9.2E-7;0;Iridium
14.34219054;0.0002158;86.3932;98.5557;81.5174;278.6266;2.5966E-5;9.2E-7;0;Iridium
14.34219138;0.0002155;86.3932;98.3514;81.637;278.507;2.6711E-5;9.5E-7;0;Iridium
14.34219231;0.0002144;86.3933;98.118;81.5145;278.6294;2.7926E-5;9.8E-7;0;Iridium
14.34219289;0.000214;86.3933;97.9429;81.4746;278.6692;2.7786E-5;9.8E-7;0;Iridium
14.34219361;0.000213;86.3934;97.6802;81.5503;278.5934;2.7318E-5;9.6E-7;0;Iridium
14.34219421;0.0002126;86.3935;97.5343;81.676;278.4677;2.7452E-5;9.7E-7;0;Iridium
14.34219581;0.0002114;86.3935;97.1257;82.0062;278.1374;2.7208E-5;9.6E-7;0;Iridium
14.34219595;0.0002115;86.3936;97.0965;82.0245;278.1191;2.6937E-5;9.5E-7;0;Iridium
14.3421966;0.0002108;86.3936;96.8922;82.1968;277.9467;2.6365E-5;9.4E-7;0;Iridium
14.34219744;0.0002107;86.3937;96.688;82.1399;278.0036;2.591E-5;9.2E-7;0;Iridium
14.34216312;0.0002803;86.3937;96.4835;74.0252;286.1253;2.446E-5;8.8E-7;0;Iridium
14.34215656;0.0002172;86.3937;96.2798;81.0335;279.1106;2.3361E-5;8.5E-7;0;Iridium
14.34215159;0.0002093;86.3941;96.0461;81.9108;278.2325;2.2626E-5;8.3E-7;0;Iridium
14.34215142;0.0002094;86.3941;95.8419;81.8028;278.3406;2.9846E-6;2.8E-7;0;Iridium
14.34215256;0.0002086;86.3941;95.6374;81.8438;278.2994;1.6194E-5;6.5E-7;0;Iridium
14.34215281;0.0002082;86.3942;95.4332;81.9015;278.2417;1.2644E-5;5.5E-7;0;Iridium
14.34215387;0.0002072;86.3943;95.2289;81.8068;278.3363;1.7931E-5;7.0E-7;0;Iridium
14.34215387;0.0002072;86.3943;95.2289;81.8068;278.3363;1.7931E-5;7.0E-7;0;Iridium
14.3421544;0.0002067;86.3944;95.0247;81.7859;278.3572;1.702E-5;6.7E-7;0;Iridium
14.34215545;0.0002056;86.3945;94.7913;81.8642;278.2787;2.0158E-5;7.6E-7;0;Iridium
14.34215545;0.0002056;86.3945;94.7913;81.8642;278.2787;2.0158E-5;7.6E-7;0;Iridium
14.34215579;0.0002053;86.3945;94.587;82.2272;277.9156;1.8305E-5;7.1E-7;0;Iridium
14.3421568;0.0002044;86.3946;94.3827;82.4901;277.6527;2.1361E-5;8.0E-7;0;Iridium
14.34215727;0.0002042;86.3946;94.1785;82.6145;277.5282;2.0766E-5;7.8E-7;0;Iridium
14.34215782;0.0002031;86.3947;93.9742;82.6343;277.5084;2.1635E-5;8.0E-7;0;Iridium
14.34215824;0.0002029;86.3947;93.77;82.6777;277.4649;2.1154E-5;7.9E-7;0;Iridium
14.34215866;0.0002021;86.3948;93.5366;82.7808;277.3617;2.1633E-5;8.0E-7;0;Iridium
14.34215866;0.0002021;86.3948;93.5366;82.7808;277.3617;2.1633E-5;8.0E-7;0;Iridium
14.34215936;0.0002008;86.3949;93.1281;83.1156;277.0268;2.1529E-5;8.0E-7;0;Iridium
14.34216016;0.0002014;86.395;92.6906;83.9401;276.2025;2.1496E-5;8.0E-7;0;Iridium
14.34216016;0.0002014;86.395;92.6906;83.9401;276.2025;2.1496E-5;8.0E-7;0;Iridium
14.34216082;0.0002017;86.395;92.5155;84.0579;276.0846;2.1922E-5;8.1E-7;0;Iridium
14.34216158;0.0002013;86.3952;92.2822;84.096;276.0465;2.3116E-5;8.5E-7;0;Iridium
14.34216253;0.0002012;86.3952;92.078;84.2104;275.9321;2.4786E-5;8.9E-7;0;Iridium
14.34216325;0.0002006;86.3953;91.8738;84.1417;276.0007;2.5219E-5;9.0E-7;0;Iridium
14.34216403;0.0002007;86.3954;91.6696;84.3691;275.7734;2.5142E-5;9.0E-7;0;Iridium
14.34216476;0.0001998;86.3955;91.4363;84.5516;275.5908;2.4772E-5;8.9E-7;0;Iridium
14.34216476;0.0001998;86.3955;91.4363;84.5516;275.5908;2.4772E-5;8.9E-7;0;Iridium
14.34216522;0.0001996;86.3956;91.2613;84.6635;275.4789;2.2958E-5;8.4E-7;0;Iridium
